[{"OBJECT_NAME":"GHGSAT-C3","OBJECT_ID":"2022-057F","EPOCH":"2026-03-09T22:30:13.234752","MEAN_MOTION":15.32943835,"ECCENTRICITY":0.00073198,"INCLINATION":97.6431,"RA_OF_ASC_NODE":211.0668,"ARG_OF_PERICENTER":112.4588,"MEAN_ANOMALY":247.7429,"EPHEMERIS_TYPE":0,"CLASSIFICATION_TYPE":"U","NORAD_CAT_ID":52737,"ELEMENT_SET_NO":999,"REV_AT_EPOCH":21032,"BSTAR":0.00031249517,"MEAN_MOTION_DOT":9.871e-5,"MEAN_MOTION_DDOT":0},{"OBJECT_NAME":"STARLINK-31389","OBJECT_ID":"2024-036R","EPOCH":"2026-03-09T23:40:19.550496","MEAN_MOTION":15.30138848,"ECCENTRICITY":9.254e-5,"INCLINATION":53.1606,"RA_OF_ASC_NODE":77.1028,"ARG_OF_PERICENTER":118.9412,"MEAN_ANOMALY":241.1682,"EPHEMERIS_TYPE":0,"CLASSIFICATION_TYPE":"U","NORAD_CAT_ID":59013,"ELEMENT_SET_NO":999,"REV_AT_EPOCH":11537,"BSTAR":0.00043832189,"MEAN_MOTION_DOT":0.0001262,"MEAN_MOTION_DDOT":0}]
